[{"OBJECT_NAME":"STARLINK-35951","OBJECT_ID":"2025-271C","EPOCH":"2026-03-09T11:45:57.790080","MEAN_MOTION":15.30177372,"ECCENTRICITY":0.00011682,"INCLINATION":53.1573,"RA_OF_ASC_NODE":141.0365,"ARG_OF_PERICENTER":103.5033,"MEAN_ANOMALY":256.6098,"EPHEMERIS_TYPE":0,"CLASSIFICATION_TYPE":"U","NORAD_CAT_ID":66619,"ELEMENT_SET_NO":999,"REV_AT_EPOCH":1753,"BSTAR":0.00062166057,"MEAN_MOTION_DOT":0.00018085,"MEAN_MOTION_DDOT":0},{"OBJECT_NAME":"SL-3 R\/B","OBJECT_ID":"1983-003B","EPOCH":"2026-03-09T21:31:00.897888","MEAN_MOTION":15.34640469,"ECCENTRICITY":0.00285789,"INCLINATION":81.155,"RA_OF_ASC_NODE":261.9078,"ARG_OF_PERICENTER":155.4571,"MEAN_ANOMALY":204.8036,"EPHEMERIS_TYPE":0,"CLASSIFICATION_TYPE":"U","NORAD_CAT_ID":13771,"ELEMENT_SET_NO":999,"REV_AT_EPOCH":35642,"BSTAR":0.00033440366,"MEAN_MOTION_DOT":0.00011405,"MEAN_MOTION_DDOT":0}]
